STARLINK-30973          
1 58713U 24002J   26068.66903906 -.00001638  00000+0 -43209-4 0  9994
2 58713  53.1592 229.9278 0001125  82.5186 277.5943 15.30180346122013
STRIX-4                 
1 60352U 24137A   26068.65404516  .00020530  00000+0  71820-3 0  9996
2 60352  43.0134 129.8162 0016840   5.2738 354.8289 15.29026223 88766
